KUZGTU 1 (RS47S)        
1 57217U 23091AV  26158.81101554  .00012555  00000+0  43855-3 0  9999
2 57217  97.5064 223.1971 0012295 126.8242 233.4128 15.29645026162949
SONATE-2                
1 59112U 24043Q   26158.37802513  .00038038  00000+0  50748-3 0  9990
2 59112  97.5526 308.1794 0006593 229.6507 130.4173 15.57986610126365
MESAT1                  
1 60209U 24125G   26158.56506543  .00055892  00000+0  63362-3 0  9998
2 60209  97.2310  15.8343 0008712 241.8849 118.1529 15.62173806108060
OOV-CUBE (TUBSAT-30)    
1 60240U 24128F   26158.60681561  .00003037  00000+0  23682-3 0  9990
2 60240  61.9951 258.9782 0045839 131.6084 228.8949 15.02733323104677
COLIBRI-S (RS67S)       
1 61746U 24199M   26158.81524628  .00022983  00000+0  45072-3 0  9991
2 61746  97.3006  32.5860 0006670 323.0571  37.0219 15.47337380135962
HORS 3 (RS81S)          
1 61753U 24199U   26158.82086387  .00035567  00000+0  54341-3 0  9996
2 61753  97.2989  34.4790 0004413 332.6251  27.4770 15.54327738136102
HORS 4 (RS82S)          
1 61754U 24199V   26158.80904478  .00046808  00000+0  60502-3 0  9991
2 61754  97.2936  35.6092 0003272 322.3448  37.7579 15.58807236136188
ARCTICSAT 1 (RS74S)     
1 61762U 24199AD  26158.84951764  .01002130  56635-3  12859-2 0  9995
2 61762  97.2848  42.3645 0007617 202.9291 157.1652 16.07341662136623
SIT-2086                
1 61764U 24199AF  26158.85218247  .00035299  00000+0  57724-3 0  9993
2 61764  97.2946  35.0200 0004564 303.8176  56.2642 15.52441996132984
HYPERVIEW 1G (RS66S)    
1 61772U 24199AP  26158.65714926  .00125136  00000+0  89305-3 0  9995
2 61772  97.2893  37.9111 0002149 288.0718  72.0312 15.73412908133175
ALTAIR (RS65S)          
1 61779U 24199AW  26158.80175155  .00011505  00000+0  32091-3 0  9998
2 61779  97.3041  28.2152 0012085 348.2799  11.8162 15.36839722135671
ASRTU-1 (AO-123)        
1 61781U 24199AY  26158.78153620  .00008711  00000+0  25377-3 0  9995
2 61781  97.3013  27.5373 0013295 350.3710   9.7277 15.35541558132486
SAMSAT-IONOSPHERE (RS7*)
1 61784U 24199BB  26158.80606025  .00045881  00000+0  63863-3 0  9994
2 61784  97.2958  34.4776 0006368 325.4519  34.6322 15.56806907136109
RTU MIREA 1 (RS51S)     
1 61785U 24199BC  26158.85069059  .00055193  00000+0  67884-3 0  9994
2 61785  97.2947  35.3086 0005753 319.3928  40.6899 15.60073116133011
TEVEL2-4                
1 63213U 25052D   26158.66121392  .00020438  00000+0  61719-3 0  9994
2 63213  97.3922  55.0407 0004354 120.1889 239.9786 15.34277122 68658
TEVEL2-5                
1 63214U 25052E   26158.68065786  .00020067  00000+0  60926-3 0  9998
2 63214  97.3908  55.0087 0004330 122.9986 237.1673 15.34110180 68654
TEVEL2-6                
1 63215U 25052F   26158.69276507  .00018744  00000+0  57000-3 0  9993
2 63215  97.3913  55.0052 0004389 122.6209 237.5458 15.34073106 68653
TEVEL2-1                
1 63217U 25052H   26158.65328309  .00018446  00000+0  57032-3 0  9993
2 63217  97.3886  54.6013 0004130 131.9709 228.1886 15.33551219 68632
TEVEL2-3                
1 63218U 25052J   26158.64826287  .00018570  00000+0  57316-3 0  9994
2 63218  97.3888  54.6167 0004211 133.1501 227.0094 15.33604146 68636
TEVEL2-2                
1 63219U 25052K   26158.65364845  .00018428  00000+0  56963-3 0  9992
2 63219  97.3887  54.6039 0004151 133.4602 226.6986 15.33558797 68637
TEVEL2-9                
1 63237U 25052AD  26158.68416822  .00016541  00000+0  54354-3 0  9994
2 63237  97.3948  54.0298 0006860 157.6841 202.4700 15.31608376 68574
TEVEL2-7                
1 63238U 25052AE  26158.65792987  .00016703  00000+0  55376-3 0  9996
2 63238  97.3946  53.9238 0006944 158.9298 201.2231 15.31319848 68566
TEVEL2-8                
1 63239U 25052AF  26158.66608190  .00016862  00000+0  55924-3 0  9995
2 63239  97.3959  53.9116 0007088 159.3996 200.7532 15.31303224 68565
INNOSAT 16 (RS92S7)     
1 64878U 25155C   26158.75266751  .00006444  00000+0  25810-3 0  9998
2 64878  97.4560 125.9115 0009422 209.8021 150.2681 15.25358628 79238
GEOSCAN 6 (RS92S6)      
1 64879U 25155D   26158.76413713  .00010469  00000+0  36303-3 0  9993
2 64879  97.4553 127.2809 0007084 194.5780 165.5257 15.29976343 79322
GEOSCAN 1 (RS92S1)      
1 64880U 25155E   26158.77020587  .00011267  00000+0  38356-3 0  9996
2 64880  97.4550 127.4271 0007009 194.4520 165.6521 15.30557921 79339
239ALFEROV (RS61S)      
1 64881U 25155F   26158.75312409  .00015056  00000+0  47873-3 0  9996
2 64881  97.4551 127.9399 0006672 190.8735 169.2363 15.32690298 79364
GEOSCAN 2 (RS92S2)      
1 64890U 25155Q   26158.76555809  .00011016  00000+0  37196-3 0  9999
2 64890  97.4548 127.5711 0006885 179.3535 180.7716 15.30829746 79348
GEOSCAN 5 (RS92S5)      
1 64891U 25155R   26158.74410661  .00015042  00000+0  47365-3 0  9996
2 64891  97.4542 128.0649 0005349 193.8938 166.2158 15.33007859 79379
GEOSCAN 4 (RS92S4)      
1 64892U 25155S   26158.72922998  .00015702  00000+0  49200-3 0  9999
2 64892  97.4546 128.0955 0005421 194.4370 165.6718 15.33156697 79372
