OBJECT_NAME,OBJECT_ID,EPOCH,MEAN_MOTION,ECCENTRICITY,INCLINATION,RA_OF_ASC_NODE,ARG_OF_PERICENTER,MEAN_ANOMALY,EPHEMERIS_TYPE,CLASSIFICATION_TYPE,NORAD_CAT_ID,ELEMENT_SET_NO,REV_AT_EPOCH,BSTAR,MEAN_MOTION_DOT,MEAN_MOTION_DDOT
KUZGTU 1 (RS47S),2023-091AV,2026-06-07T19:27:51.742656,15.29645026,.0012295,97.5064,223.1971,126.8242,233.4128,0,U,57217,999,16294,.43855E-3,.12555E-3,0
SONATE-2,2024-043Q,2026-06-07T09:04:21.371232,15.57986610,.0006593,97.5526,308.1794,229.6507,130.4173,0,U,59112,999,12636,.50748E-3,.38038E-3,0
MESAT1,2024-125G,2026-06-07T13:33:41.653152,15.62173806,.0008712,97.2310,15.8343,241.8849,118.1529,0,U,60209,999,10806,.63362E-3,.55892E-3,0
OOV-CUBE (TUBSAT-30),2024-128F,2026-06-07T14:33:48.868704,15.02733323,.0045839,61.9951,258.9782,131.6084,228.8949,0,U,60240,999,10467,.23682E-3,.3037E-4,0
COLIBRI-S (RS67S),2024-199M,2026-06-07T19:33:57.278592,15.47337380,.000667,97.3006,32.5860,323.0571,37.0219,0,U,61746,999,13596,.45072E-3,.22983E-3,0
HORS 3 (RS81S),2024-199U,2026-06-07T19:42:02.638368,15.54327738,.0004413,97.2989,34.4790,332.6251,27.4770,0,U,61753,999,13610,.54341E-3,.35567E-3,0
HORS 4 (RS82S),2024-199V,2026-06-07T19:25:01.468992,15.58807236,.0003272,97.2936,35.6092,322.3448,37.7579,0,U,61754,999,13618,.60502E-3,.46808E-3,0
ARCTICSAT 1 (RS74S),2024-199AD,2026-06-07T20:23:18.324096,16.07341662,.0007617,97.2848,42.3645,202.9291,157.1652,0,U,61762,999,13662,.12859E-2,.100213E-1,.56635E-3
SIT-2086,2024-199AF,2026-06-07T20:27:08.565408,15.52441996,.0004564,97.2946,35.0200,303.8176,56.2642,0,U,61764,999,13298,.57724E-3,.35299E-3,0
HYPERVIEW 1G (RS66S),2024-199AP,2026-06-07T15:46:17.696064,15.73412908,.0002149,97.2893,37.9111,288.0718,72.0312,0,U,61772,999,13317,.89305E-3,.125136E-2,0
ALTAIR (RS65S),2024-199AW,2026-06-07T19:14:31.333920,15.36839722,.0012085,97.3041,28.2152,348.2799,11.8162,0,U,61779,999,13567,.32091E-3,.11505E-3,0
ASRTU-1 (AO-123),2024-199AY,2026-06-07T18:45:24.727680,15.35541558,.0013295,97.3013,27.5373,350.3710,9.7277,0,U,61781,999,13248,.25377E-3,.8711E-4,0
SAMSAT-IONOSPHERE (RS75S),2024-199BB,2026-06-07T19:20:43.605600,15.56806907,.0006368,97.2958,34.4776,325.4519,34.6322,0,U,61784,999,13610,.63863E-3,.45881E-3,0
RTU MIREA 1 (RS51S),2024-199BC,2026-06-07T20:24:59.666976,15.60073116,.0005753,97.2947,35.3086,319.3928,40.6899,0,U,61785,999,13301,.67884E-3,.55193E-3,0
TEVEL2-4,2025-052D,2026-06-07T15:52:08.882688,15.34277122,.0004354,97.3922,55.0407,120.1889,239.9786,0,U,63213,999,6865,.61719E-3,.20438E-3,0
TEVEL2-5,2025-052E,2026-06-07T16:20:08.839104,15.34110180,.000433,97.3908,55.0087,122.9986,237.1673,0,U,63214,999,6865,.60926E-3,.20067E-3,0
TEVEL2-6,2025-052F,2026-06-07T16:37:34.902048,15.34073106,.0004389,97.3913,55.0052,122.6209,237.5458,0,U,63215,999,6865,.57E-3,.18744E-3,0
TEVEL2-1,2025-052H,2026-06-07T15:40:43.658976,15.33551219,.000413,97.3886,54.6013,131.9709,228.1886,0,U,63217,999,6863,.57032E-3,.18446E-3,0
TEVEL2-3,2025-052J,2026-06-07T15:33:29.911968,15.33604146,.0004211,97.3888,54.6167,133.1501,227.0094,0,U,63218,999,6863,.57316E-3,.1857E-3,0
TEVEL2-2,2025-052K,2026-06-07T15:41:15.226080,15.33558797,.0004151,97.3887,54.6039,133.4602,226.6986,0,U,63219,999,6863,.56963E-3,.18428E-3,0
TEVEL2-9,2025-052AD,2026-06-07T16:25:12.134208,15.31608376,.000686,97.3948,54.0298,157.6841,202.4700,0,U,63237,999,6857,.54354E-3,.16541E-3,0
TEVEL2-7,2025-052AE,2026-06-07T15:47:25.140768,15.31319848,.0006944,97.3946,53.9238,158.9298,201.2231,0,U,63238,999,6856,.55376E-3,.16703E-3,0
TEVEL2-8,2025-052AF,2026-06-07T15:59:09.476160,15.31303224,.0007088,97.3959,53.9116,159.3996,200.7532,0,U,63239,999,6856,.55924E-3,.16862E-3,0
INNOSAT 16 (RS92S7),2025-155C,2026-06-07T18:03:50.472864,15.25358628,.0009422,97.4560,125.9115,209.8021,150.2681,0,U,64878,999,7923,.2581E-3,.6444E-4,0
GEOSCAN 6 (RS92S6),2025-155D,2026-06-07T18:20:21.448032,15.29976343,.0007084,97.4553,127.2809,194.5780,165.5257,0,U,64879,999,7932,.36303E-3,.10469E-3,0
GEOSCAN 1 (RS92S1),2025-155E,2026-06-07T18:29:05.787168,15.30557921,.0007009,97.4550,127.4271,194.4520,165.6521,0,U,64880,999,7933,.38356E-3,.11267E-3,0
239ALFEROV (RS61S),2025-155F,2026-06-07T18:04:29.921376,15.32690298,.0006672,97.4551,127.9399,190.8735,169.2363,0,U,64881,999,7936,.47873E-3,.15056E-3,0
GEOSCAN 2 (RS92S2),2025-155Q,2026-06-07T18:22:24.218976,15.30829746,.0006885,97.4548,127.5711,179.3535,180.7716,0,U,64890,999,7934,.37196E-3,.11016E-3,0
GEOSCAN 5 (RS92S5),2025-155R,2026-06-07T17:51:30.811104,15.33007859,.0005349,97.4542,128.0649,193.8938,166.2158,0,U,64891,999,7937,.47365E-3,.15042E-3,0
GEOSCAN 4 (RS92S4),2025-155S,2026-06-07T17:30:05.470272,15.33156697,.0005421,97.4546,128.0955,194.4370,165.6718,0,U,64892,999,7937,.492E-3,.15702E-3,0
